{
  "norad_id": 54234,
  "name": "NOAA 21 (JPSS-2)",
  "history": [
    {
      "epoch": "2026-03-28T21:27:08.967456Z",
      "apogee_km": 828.8335548512696,
      "perigee_km": 824.8685058384099,
      "latitude_deg": 5.0496218695156195e-05,
      "longitude_deg": -120.15293055958205,
      "height_km": 829.1809409309286,
      "semi_major_axis_km": 7204.98803034484,
      "eccentricity": 0.00027516,
      "inclination_deg": 98.7576,
      "raan_deg": 27.9422,
      "arg_perigee_deg": 73.0528,
      "mean_anomaly_deg": 287.095,
      "mean_motion_rev_day": 14.19557101
    },
    {
      "epoch": "2026-03-29T04:13:08.281920Z",
      "apogee_km": 828.8324050148194,
      "perigee_km": 824.868220995204,
      "latitude_deg": 1.981491018880925e-05,
      "longitude_deg": 138.35084128502425,
      "height_km": 829.1676694796608,
      "semi_major_axis_km": 7204.987313005011,
      "eccentricity": 0.0002751,
      "inclination_deg": 98.7576,
      "raan_deg": 28.221,
      "arg_perigee_deg": 72.6688,
      "mean_anomaly_deg": 287.4789,
      "mean_motion_rev_day": 14.19557313
    },
    {
      "epoch": "2026-03-30T03:54:05.889024Z",
      "apogee_km": 828.8221619188862,
      "perigee_km": 824.8767113461872,
      "latitude_deg": -5.146960555834723e-05,
      "longitude_deg": 143.11391057443137,
      "height_km": 829.1150817976893,
      "semi_major_axis_km": 7204.986436632536,
      "eccentricity": 0.0002738,
      "inclination_deg": 98.7578,
      "raan_deg": 29.1967,
      "arg_perigee_deg": 71.0008,
      "mean_anomaly_deg": 289.1464,
      "mean_motion_rev_day": 14.19557572
    }
  ]
}